CCSDS_OMM_VERS = 2.0
CREATION_DATE  = 
ORIGINATOR     = 

OBJECT_NAME    = SL-14 R/B
OBJECT_ID      = 1988-001B
CENTER_NAME    = EARTH
REF_FRAME      = TEME
TIME_SYSTEM    = UTC
MEAN_ELEMENT_THEORY = SGP/SGP4

EPOCH          = 2025-12-03T03:29:49.628256
MEAN_MOTION    = 14.85406818
ECCENTRICITY   = .0017611
INCLINATION    = 82.5124
RA_OF_ASC_NODE = 286.1715
ARG_OF_PERICENTER = 192.7555
MEAN_ANOMALY   = 167.3219

EPHEMERIS_TYPE = 0
CLASSIFICATION_TYPE = U
NORAD_CAT_ID   = 18749
ELEMENT_SET_NO = 999
REV_AT_EPOCH   = 2769
BSTAR          = .84591E-4
MEAN_MOTION_DOT = .754E-5
MEAN_MOTION_DDOT = 0

CCSDS_OMM_VERS = 2.0
CREATION_DATE  = 
ORIGINATOR     = 

OBJECT_NAME    = COSMOS 1933
OBJECT_ID      = 1988-020A
CENTER_NAME    = EARTH
REF_FRAME      = TEME
TIME_SYSTEM    = UTC
MEAN_ELEMENT_THEORY = SGP/SGP4

EPOCH          = 2025-12-03T02:56:50.236224
MEAN_MOTION    = 15.16980831
ECCENTRICITY   = .0005002
INCLINATION    = 82.5128
RA_OF_ASC_NODE = 346.3815
ARG_OF_PERICENTER = 153.1269
MEAN_ANOMALY   = 207.0224

EPHEMERIS_TYPE = 0
CLASSIFICATION_TYPE = U
NORAD_CAT_ID   = 18958
ELEMENT_SET_NO = 999
REV_AT_EPOCH   = 3558
BSTAR          = .28086E-3
MEAN_MOTION_DOT = .5576E-4
MEAN_MOTION_DDOT = 0

CCSDS_OMM_VERS = 2.0
CREATION_DATE  = 
ORIGINATOR     = 

OBJECT_NAME    = SL-3 R/B
OBJECT_ID      = 1988-032B
CENTER_NAME    = EARTH
REF_FRAME      = TEME
TIME_SYSTEM    = UTC
MEAN_ELEMENT_THEORY = SGP/SGP4

EPOCH          = 2025-12-03T02:38:15.296064
MEAN_MOTION    = 15.18583373
ECCENTRICITY   = .00257
INCLINATION    = 97.5063
RA_OF_ASC_NODE = 315.8989
ARG_OF_PERICENTER = 207.1181
MEAN_ANOMALY   = 152.8712

EPHEMERIS_TYPE = 0
CLASSIFICATION_TYPE = U
NORAD_CAT_ID   = 19046
ELEMENT_SET_NO = 999
REV_AT_EPOCH   = 3744
BSTAR          = .34726E-3
MEAN_MOTION_DOT = .7173E-4
MEAN_MOTION_DDOT = 0

CCSDS_OMM_VERS = 2.0
CREATION_DATE  = 
ORIGINATOR     = 

OBJECT_NAME    = SL-16 R/B
OBJECT_ID      = 1988-039B
CENTER_NAME    = EARTH
REF_FRAME      = TEME
TIME_SYSTEM    = UTC
MEAN_ELEMENT_THEORY = SGP/SGP4

EPOCH          = 2025-12-03T02:14:33.795744
MEAN_MOTION    = 14.19593531
ECCENTRICITY   = .0020039
INCLINATION    = 71.0148
RA_OF_ASC_NODE = 272.7937
ARG_OF_PERICENTER = 132.5437
MEAN_ANOMALY   = 227.7384

EPHEMERIS_TYPE = 0
CLASSIFICATION_TYPE = U
NORAD_CAT_ID   = 19120
ELEMENT_SET_NO = 999
REV_AT_EPOCH   = 94467
BSTAR          = .6032E-4
MEAN_MOTION_DOT = .8E-6
MEAN_MOTION_DDOT = 0

CCSDS_OMM_VERS = 2.0
CREATION_DATE  = 
ORIGINATOR     = 

OBJECT_NAME    = COSMOS 1953
OBJECT_ID      = 1988-050A
CENTER_NAME    = EARTH
REF_FRAME      = TEME
TIME_SYSTEM    = UTC
MEAN_ELEMENT_THEORY = SGP/SGP4

EPOCH          = 2025-12-02T19:24:03.712320
MEAN_MOTION    = 15.26750323
ECCENTRICITY   = .0013786
INCLINATION    = 82.5095
RA_OF_ASC_NODE = 255.5439
ARG_OF_PERICENTER = 101.4801
MEAN_ANOMALY   = 258.7987

EPHEMERIS_TYPE = 0
CLASSIFICATION_TYPE = U
NORAD_CAT_ID   = 19210
ELEMENT_SET_NO = 999
REV_AT_EPOCH   = 2299
BSTAR          = .31346E-3
MEAN_MOTION_DOT = .8298E-4
MEAN_MOTION_DDOT = 0

CCSDS_OMM_VERS = 2.0
CREATION_DATE  = 
ORIGINATOR     = 

OBJECT_NAME    = SL-8 R/B
OBJECT_ID      = 1988-053B
CENTER_NAME    = EARTH
REF_FRAME      = TEME
TIME_SYSTEM    = UTC
MEAN_ELEMENT_THEORY = SGP/SGP4

EPOCH          = 2025-12-03T03:27:50.354784
MEAN_MOTION    = 14.38849190
ECCENTRICITY   = .001923
INCLINATION    = 74.0474
RA_OF_ASC_NODE = 290.4041
ARG_OF_PERICENTER = 138.0103
MEAN_ANOMALY   = 233.3490

EPHEMERIS_TYPE = 0
CLASSIFICATION_TYPE = U
NORAD_CAT_ID   = 19257
ELEMENT_SET_NO = 999
REV_AT_EPOCH   = 96271
BSTAR          = .11853E-3
MEAN_MOTION_DOT = .339E-5
MEAN_MOTION_DDOT = 0

CCSDS_OMM_VERS = 2.0
CREATION_DATE  = 
ORIGINATOR     = 

OBJECT_NAME    = COSMOS 1975
OBJECT_ID      = 1988-093A
CENTER_NAME    = EARTH
REF_FRAME      = TEME
TIME_SYSTEM    = UTC
MEAN_ELEMENT_THEORY = SGP/SGP4

EPOCH          = 2025-12-03T03:27:20.416320
MEAN_MOTION    = 15.26247336
ECCENTRICITY   = .0012208
INCLINATION    = 82.5215
RA_OF_ASC_NODE = 214.4323
ARG_OF_PERICENTER = 142.6546
MEAN_ANOMALY   = 217.5543

EPHEMERIS_TYPE = 0
CLASSIFICATION_TYPE = U
NORAD_CAT_ID   = 19573
ELEMENT_SET_NO = 999
REV_AT_EPOCH   = 467
BSTAR          = .46187E-3
MEAN_MOTION_DOT = .12024E-3
MEAN_MOTION_DDOT = 0

CCSDS_OMM_VERS = 2.0
CREATION_DATE  = 
ORIGINATOR     = 

OBJECT_NAME    = SL-14 R/B
OBJECT_ID      = 1988-093B
CENTER_NAME    = EARTH
REF_FRAME      = TEME
TIME_SYSTEM    = UTC
MEAN_ELEMENT_THEORY = SGP/SGP4

EPOCH          = 2025-12-02T22:49:58.812960
MEAN_MOTION    = 14.85531654
ECCENTRICITY   = .0020801
INCLINATION    = 82.5296
RA_OF_ASC_NODE = 132.8528
ARG_OF_PERICENTER = 2.3535
MEAN_ANOMALY   = 114.4125

EPHEMERIS_TYPE = 0
CLASSIFICATION_TYPE = U
NORAD_CAT_ID   = 19574
ELEMENT_SET_NO = 999
REV_AT_EPOCH   = 98667
BSTAR          = .81387E-4
MEAN_MOTION_DOT = .73E-5
MEAN_MOTION_DDOT = 0

CCSDS_OMM_VERS = 2.0
CREATION_DATE  = 
ORIGINATOR     = 

OBJECT_NAME    = SL-16 R/B
OBJECT_ID      = 1988-102B
CENTER_NAME    = EARTH
REF_FRAME      = TEME
TIME_SYSTEM    = UTC
MEAN_ELEMENT_THEORY = SGP/SGP4

EPOCH          = 2025-12-03T03:13:42.578112
MEAN_MOTION    = 14.16137356
ECCENTRICITY   = .0013431
INCLINATION    = 71.0004
RA_OF_ASC_NODE = 354.6541
ARG_OF_PERICENTER = 167.8552
MEAN_ANOMALY   = 192.2898

EPHEMERIS_TYPE = 0
CLASSIFICATION_TYPE = U
NORAD_CAT_ID   = 19650
ELEMENT_SET_NO = 999
REV_AT_EPOCH   = 91322
BSTAR          = -.26949E-4
MEAN_MOTION_DOT = -.101E-5
MEAN_MOTION_DDOT = 0

CCSDS_OMM_VERS = 2.0
CREATION_DATE  = 
ORIGINATOR     = 

OBJECT_NAME    = INTERCOSMOS 24
OBJECT_ID      = 1989-080A
CENTER_NAME    = EARTH
REF_FRAME      = TEME
TIME_SYSTEM    = UTC
MEAN_ELEMENT_THEORY = SGP/SGP4

EPOCH          = 2025-12-03T01:13:57.651744
MEAN_MOTION    = 12.59411402
ECCENTRICITY   = .1188722
INCLINATION    = 82.6044
RA_OF_ASC_NODE = 167.2522
ARG_OF_PERICENTER = 156.9881
MEAN_ANOMALY   = 208.9368

EPHEMERIS_TYPE = 0
CLASSIFICATION_TYPE = U
NORAD_CAT_ID   = 20261
ELEMENT_SET_NO = 999
REV_AT_EPOCH   = 65463
BSTAR          = .31677E-3
MEAN_MOTION_DOT = .1095E-4
MEAN_MOTION_DDOT = 0

CCSDS_OMM_VERS = 2.0
CREATION_DATE  = 
ORIGINATOR     = 

OBJECT_NAME    = SL-14 R/B
OBJECT_ID      = 1989-080C
CENTER_NAME    = EARTH
REF_FRAME      = TEME
TIME_SYSTEM    = UTC
MEAN_ELEMENT_THEORY = SGP/SGP4

EPOCH          = 2025-12-03T03:26:40.942752
MEAN_MOTION    = 12.50400939
ECCENTRICITY   = .1230815
INCLINATION    = 82.5938
RA_OF_ASC_NODE = 235.1794
ARG_OF_PERICENTER = 45.5153
MEAN_ANOMALY   = 324.0145

EPHEMERIS_TYPE = 0
CLASSIFICATION_TYPE = U
NORAD_CAT_ID   = 20262
ELEMENT_SET_NO = 999
REV_AT_EPOCH   = 64808
BSTAR          = .17182E-3
MEAN_MOTION_DOT = .594E-5
MEAN_MOTION_DDOT = 0

CCSDS_OMM_VERS = 2.0
CREATION_DATE  = 
ORIGINATOR     = 

OBJECT_NAME    = DELTA 1 R/B
OBJECT_ID      = 1989-089B
CENTER_NAME    = EARTH
REF_FRAME      = TEME
TIME_SYSTEM    = UTC
MEAN_ELEMENT_THEORY = SGP/SGP4

EPOCH          = 2025-12-03T02:53:32.456256
MEAN_MOTION    = 14.50559344
ECCENTRICITY   = .0070585
INCLINATION    = 97.0758
RA_OF_ASC_NODE = 194.8822
ARG_OF_PERICENTER = 68.1474
MEAN_ANOMALY   = 292.7212

EPHEMERIS_TYPE = 0
CLASSIFICATION_TYPE = U
NORAD_CAT_ID   = 20323
ELEMENT_SET_NO = 999
REV_AT_EPOCH   = 88173
BSTAR          = .13159E-3
MEAN_MOTION_DOT = .497E-5
MEAN_MOTION_DDOT = 0

