SL-14 R/B               
1 18749U 88001B   25337.14571329  .00000754  00000+0  84591-4 0  9994
2 18749  82.5124 286.1715 0017611 192.7555 167.3219 14.85406818 27691
COSMOS 1933             
1 18958U 88020A   25337.12280366  .00005576  00000+0  28086-3 0  9996
2 18958  82.5128 346.3815 0005002 153.1269 207.0224 15.16980831 35583
SL-3 R/B                
1 19046U 88032B   25337.10989926  .00007173  00000+0  34726-3 0  9997
2 19046  97.5063 315.8989 0025700 207.1181 152.8712 15.18583373 37447
SL-16 R/B               
1 19120U 88039B   25337.09344671  .00000080  00000+0  60320-4 0  9997
2 19120  71.0148 272.7937 0020039 132.5437 227.7384 14.19593531944676
COSMOS 1953             
1 19210U 88050A   25336.80837630  .00008298  00000+0  31346-3 0  9994
2 19210  82.5095 255.5439 0013786 101.4801 258.7987 15.26750323 22999
SL-8 R/B                
1 19257U 88053B   25337.14433281  .00000339  00000+0  11853-3 0  9999
2 19257  74.0474 290.4041 0019230 138.0103 233.3490 14.38849190962719
COSMOS 1975             
1 19573U 88093A   25337.14398630  .00012024  00000+0  46187-3 0  9994
2 19573  82.5215 214.4323 0012208 142.6546 217.5543 15.26247336  4673
SL-14 R/B               
1 19574U 88093B   25336.95137515  .00000730  00000+0  81387-4 0  9999
2 19574  82.5296 132.8528 0020801   2.3535 114.4125 14.85531654986674
SL-16 R/B               
1 19650U 88102B   25337.13452058 -.00000101  00000+0 -26949-4 0  9995
2 19650  71.0004 354.6541 0013431 167.8552 192.2898 14.16137356913222
INTERCOSMOS 24          
1 20261U 89080A   25337.05136171  .00001095  00000+0  31677-3 0  9991
2 20261  82.6044 167.2522 1188722 156.9881 208.9368 12.59411402654638
SL-14 R/B               
1 20262U 89080C   25337.14352943  .00000594  00000+0  17182-3 0  9997
2 20262  82.5938 235.1794 1230815  45.5153 324.0145 12.50400939648081
DELTA 1 R/B             
1 20323U 89089B   25337.12051454  .00000497  00000+0  13159-3 0  9997
2 20323  97.0758 194.8822 0070585  68.1474 292.7212 14.50559344881739
